{
  "type": "FeatureCollection",
  "features": [
    {
      "type": "Feature",
      "properties": {
        "norad_id": 40938,
        "name": "BEIDOU-3S IGSO-2S (C56)",
        "group": "beidou",
        "lat": -44.13291924997367,
        "lon": 136.74077029926622,
        "alt_km": 35654.221682825366,
        "timestamp": "2025-12-18T21:31:51.266481+00:00",
        "meta_object_name": "BEIDOU-3S IGSO-2S (C56)",
        "meta_object_id": "2015-053A",
        "meta_epoch": "2025-12-17T17:12:22.751136",
        "meta_mean_motion": 1.00269192,
        "meta_eccentricity": 0.00604784,
        "meta_inclination": 49.5029,
        "meta_ra_of_asc_node": 260.9465,
        "meta_arg_of_pericenter": 188.653,
        "meta_mean_anomaly": 351.012,
        "meta_ephemeris_type": 0,
        "meta_classification_type": "U",
        "meta_norad_cat_id": 40938,
        "meta_element_set_no": 999,
        "meta_rev_at_epoch": 3753,
        "meta_bstar": 0,
        "meta_mean_motion_dot": -1.26e-06,
        "meta_mean_motion_ddot": 0,
        "tle_line1": "1 40938U 15053A   25351.71692999 -.00000126  00000+0  00000+0 0  9994",
        "tle_line2": "2 40938  49.5029 260.9465 0060478 188.6530 351.0120  1.00269192 37533"
      },
      "geometry": {
        "type": "Point",
        "coordinates": [
          136.74077029926622,
          -44.13291924997367
        ]
      }
    },
    {
      "type": "Feature",
      "properties": {
        "norad_id": 41434,
        "name": "BEIDOU-2 IGSO-6 (C13)",
        "group": "beidou",
        "lat": 57.32883317121736,
        "lon": 155.60805858712976,
        "alt_km": 35927.10269016654,
        "timestamp": "2025-12-18T21:31:51.266492+00:00",
        "meta_object_name": "BEIDOU-2 IGSO-6 (C13)",
        "meta_object_id": "2016-021A",
        "meta_epoch": "2025-12-11T15:29:12.615360",
        "meta_mean_motion": 1.00293077,
        "meta_eccentricity": 0.00608616,
        "meta_inclination": 59.9644,
        "meta_ra_of_asc_node": 39.9082,
        "meta_arg_of_pericenter": 229.9753,
        "meta_mean_anomaly": 135.9177,
        "meta_ephemeris_type": 0,
        "meta_classification_type": "U",
        "meta_norad_cat_id": 41434,
        "meta_element_set_no": 999,
        "meta_rev_at_epoch": 3560,
        "meta_bstar": 0,
        "meta_mean_motion_dot": -1.62e-06,
        "meta_mean_motion_ddot": 0,
        "tle_line1": "1 41434U 16021A   25345.64528490 -.00000162  00000+0  00000+0 0  9991",
        "tle_line2": "2 41434  59.9644  39.9082 0060861 229.9753 135.9177  1.00293077 35600"
      },
      "geometry": {
        "type": "Point",
        "coordinates": [
          155.60805858712976,
          57.32883317121736
        ]
      }
    },
    {
      "type": "Feature",
      "properties": {
        "norad_id": 41586,
        "name": "BEIDOU-2 G7 (C03)",
        "group": "beidou",
        "lat": 1.7733599847520984,
        "lon": 161.22193538027742,
        "alt_km": 35785.688283957345,
        "timestamp": "2025-12-18T21:31:51.266505+00:00",
        "meta_object_name": "BEIDOU-2 G7 (C03)",
        "meta_object_id": "2016-037A",
        "meta_epoch": "2025-12-18T01:50:09.134304",
        "meta_mean_motion": 1.00272738,
        "meta_eccentricity": 0.0005106,
        "meta_inclination": 1.7698,
        "meta_ra_of_asc_node": 67.8228,
        "meta_arg_of_pericenter": 3.2684,
        "meta_mean_anomaly": 153.8419,
        "meta_ephemeris_type": 0,
        "meta_classification_type": "U",
        "meta_norad_cat_id": 41586,
        "meta_element_set_no": 999,
        "meta_rev_at_epoch": 507,
        "meta_bstar": 0,
        "meta_mean_motion_dot": -3.3e-06,
        "meta_mean_motion_ddot": 0,
        "tle_line1": "1 41586U 16037A   25352.07649461 -.00000330  00000+0  00000+0 0  9990",
        "tle_line2": "2 41586   1.7698  67.8228 0005106   3.2684 153.8419  1.00272738  5078"
      },
      "geometry": {
        "type": "Point",
        "coordinates": [
          161.22193538027742,
          1.7733599847520984
        ]
      }
    },
    {
      "type": "Feature",
      "properties": {
        "norad_id": 43001,
        "name": "BEIDOU-3 M1 (C19)",
        "group": "beidou",
        "lat": 45.467949823869226,
        "lon": -153.12571303119964,
        "alt_km": 21548.813753641687,
        "timestamp": "2025-12-18T21:31:51.266517+00:00",
        "meta_object_name": "BEIDOU-3 M1 (C19)",
        "meta_object_id": "2017-069A",
        "meta_epoch": "2025-12-17T15:24:44.433216",
        "meta_mean_motion": 1.86231367,
        "meta_eccentricity": 0.00094147,
        "meta_inclination": 56.5313,
        "meta_ra_of_asc_node": 69.0717,
        "meta_arg_of_pericenter": 302.6799,
        "meta_mean_anomaly": 57.2556,
        "meta_ephemeris_type": 0,
        "meta_classification_type": "U",
        "meta_norad_cat_id": 43001,
        "meta_element_set_no": 999,
        "meta_rev_at_epoch": 5522,
        "meta_bstar": 0,
        "meta_mean_motion_dot": -7e-07,
        "meta_mean_motion_ddot": 0,
        "tle_line1": "1 43001U 17069A   25351.64218094 -.00000070  00000+0  00000+0 0  9997",
        "tle_line2": "2 43001  56.5313  69.0717 0009414 302.6799  57.2556  1.86231367 55228"
      },
      "geometry": {
        "type": "Point",
        "coordinates": [
          -153.12571303119964,
          45.467949823869226
        ]
      }
    },
    {
      "type": "Feature",
      "properties": {
        "norad_id": 43002,
        "name": "BEIDOU-3 M2 (C20)",
        "group": "beidou",
        "lat": 14.382504347201863,
        "lon": -120.67011049435366,
        "alt_km": 21544.124513119845,
        "timestamp": "2025-12-18T21:31:51.266528+00:00",
        "meta_object_name": "BEIDOU-3 M2 (C20)",
        "meta_object_id": "2017-069B",
        "meta_epoch": "2025-12-18T02:49:13.033344",
        "meta_mean_motion": 1.86230976,
        "meta_eccentricity": 0.00064664,
        "meta_inclination": 56.5314,
        "meta_ra_of_asc_node": 69.092,
        "meta_arg_of_pericenter": 330.9004,
        "meta_mean_anomaly": 29.0919,
        "meta_ephemeris_type": 0,
        "meta_classification_type": "U",
        "meta_norad_cat_id": 43002,
        "meta_element_set_no": 999,
        "meta_rev_at_epoch": 5522,
        "meta_bstar": 0,
        "meta_mean_motion_dot": -6.6e-07,
        "meta_mean_motion_ddot": 0,
        "tle_line1": "1 43002U 17069B   25352.11751196 -.00000066  00000+0  00000+0 0  9991",
        "tle_line2": "2 43002  56.5314  69.0920 0006466 330.9004  29.0919  1.86230976 55228"
      },
      "geometry": {
        "type": "Point",
        "coordinates": [
          -120.67011049435366,
          14.382504347201863
        ]
      }
    },
    {
      "type": "Feature",
      "properties": {
        "norad_id": 43107,
        "name": "BEIDOU-3 M7 (C27)",
        "group": "beidou",
        "lat": -20.095012422154927,
        "lon": -66.55315721712694,
        "alt_km": 21531.260303277108,
        "timestamp": "2025-12-18T21:31:51.266539+00:00",
        "meta_object_name": "BEIDOU-3 M7 (C27)",
        "meta_object_id": "2018-003A",
        "meta_epoch": "2025-12-17T07:45:51.117120",
        "meta_mean_motion": 1.86232475,
        "meta_eccentricity": 0.00027428,
        "meta_inclination": 54.4925,
        "meta_ra_of_asc_node": 308.6547,
        "meta_arg_of_pericenter": 69.5375,
        "meta_mean_anomaly": 290.4783,
        "meta_ephemeris_type": 0,
        "meta_classification_type": "U",
        "meta_norad_cat_id": 43107,
        "meta_element_set_no": 999,
        "meta_rev_at_epoch": 5396,
        "meta_bstar": 0,
        "meta_mean_motion_dot": -9.2e-07,
        "meta_mean_motion_ddot": 0,
        "tle_line1": "1 43107U 18003A   25351.32350830 -.00000092  00000+0  00000+0 0  9997",
        "tle_line2": "2 43107  54.4925 308.6547 0002742  69.5375 290.4783  1.86232475 53963"
      },
      "geometry": {
        "type": "Point",
        "coordinates": [
          -66.55315721712694,
          -20.095012422154927
        ]
      }
    },
    {
      "type": "Feature",
      "properties": {
        "norad_id": 43108,
        "name": "BEIDOU-3 M8 (C28)",
        "group": "beidou",
        "lat": 9.696768743251425,
        "lon": -44.437831140028955,
        "alt_km": 21528.24849530133,
        "timestamp": "2025-12-18T21:31:51.266581+00:00",
        "meta_object_name": "BEIDOU-3 M8 (C28)",
        "meta_object_id": "2018-003B",
        "meta_epoch": "2025-12-17T06:26:34.084320",
        "meta_mean_motion": 1.8623095,
        "meta_eccentricity": 0.00046498,
        "meta_inclination": 54.4854,
        "meta_ra_of_asc_node": 308.6394,
        "meta_arg_of_pericenter": 276.4476,
        "meta_mean_anomaly": 83.4857,
        "meta_ephemeris_type": 0,
        "meta_classification_type": "U",
        "meta_norad_cat_id": 43108,
        "meta_element_set_no": 999,
        "meta_rev_at_epoch": 5397,
        "meta_bstar": 0,
        "meta_mean_motion_dot": -9.2e-07,
        "meta_mean_motion_ddot": 0,
        "tle_line1": "1 43108U 18003B   25351.26845005 -.00000092  00000+0  00000+0 0  9994",
        "tle_line2": "2 43108  54.4854 308.6394 0004649 276.4476  83.4857  1.86230950 53973"
      },
      "geometry": {
        "type": "Point",
        "coordinates": [
          -44.437831140028955,
          9.696768743251425
        ]
      }
    }
  ]
}